KINEIS-2D               
1 62930U 25028C   26193.68230251  .00000845  00000+0  13076-3 0  9991
2 62930  97.9274 245.6364 0004681 115.0880 245.0816 14.75764338 76470
KINEIS-2E               
1 62931U 25028D   26193.69663600  .00000736  00000+0  11127-3 0  9995
2 62931  97.8942 244.7861 0002124  97.2187 262.9265 14.77083499 76543
KINEIS-2A               
1 62932U 25028E   26193.69720520  .00000682  00000+0  11294-3 0  9996
2 62932  98.1289 249.1224 0006047  89.7468 270.4432 14.73446888 76361
KINEIS-2B               
1 62934U 25028G   26193.74248424  .00000701  00000+0  11564-3 0  9994
2 62934  97.9656 246.1398 0004926  79.5102 280.6661 14.73447940 76427
KINEIS-4E               
1 63300U 25056A   26193.80292707  .00000776  00000+0  13050-3 0  9997
2 63300  97.9066 316.9910 0003021  89.9263 270.2291 14.72298903 70895
KINEIS-4C               
1 63301U 25056B   26193.81534200  .00000801  00000+0  13434-3 0  9991
2 63301  97.9119 317.2504 0002606 221.4230 138.6781 14.72320639 70908
KINEIS-4D               
1 63302U 25056C   26193.81863412  .00000863  00000+0  14387-3 0  9998
2 63302  97.9040 317.2287 0001335 227.8557 132.2537 14.72423444 70907
KINEIS-4A               
1 63303U 25056D   26193.85384260  .00000781  00000+0  13121-3 0  9996
2 63303  97.9135 317.2120 0001914 157.0721 203.0573 14.72330167 70905
KINEIS-4B               
1 63304U 25056E   26193.83655789  .00000780  00000+0  13102-3 0  9990
2 63304  97.9146 317.2522 0005100 200.6498 159.4505 14.72324588 70898
