{"fetched_at":"2026-07-13T07:48:30.281Z","source":"https://celestrak.org/NORAD/elements/gp.php?NAME=KINEIS&FORMAT=JSON","constellation":"kineis","records":[{"OBJECT_NAME":"KINEIS-2D","OBJECT_ID":"2025-028C","EPOCH":"2026-07-12T16:22:30.936864","CLASSIFICATION_TYPE":"U","MEAN_MOTION":14.75764338,"ECCENTRICITY":0.0004681,"INCLINATION":97.9274,"RA_OF_ASC_NODE":245.6364,"ARG_OF_PERICENTER":115.088,"MEAN_ANOMALY":245.0816,"EPHEMERIS_TYPE":0,"NORAD_CAT_ID":62930,"ELEMENT_SET_NO":999,"REV_AT_EPOCH":7647,"BSTAR":0.00013076,"MEAN_MOTION_DOT":0.00000845,"MEAN_MOTION_DDOT":0},{"OBJECT_NAME":"KINEIS-2E","OBJECT_ID":"2025-028D","EPOCH":"2026-07-12T16:43:09.350400","CLASSIFICATION_TYPE":"U","MEAN_MOTION":14.77083499,"ECCENTRICITY":0.0002124,"INCLINATION":97.8942,"RA_OF_ASC_NODE":244.7861,"ARG_OF_PERICENTER":97.2187,"MEAN_ANOMALY":262.9265,"EPHEMERIS_TYPE":0,"NORAD_CAT_ID":62931,"ELEMENT_SET_NO":999,"REV_AT_EPOCH":7654,"BSTAR":0.00011127,"MEAN_MOTION_DOT":0.00000736,"MEAN_MOTION_DDOT":0},{"OBJECT_NAME":"KINEIS-2A","OBJECT_ID":"2025-028E","EPOCH":"2026-07-12T16:43:58.529280","CLASSIFICATION_TYPE":"U","MEAN_MOTION":14.73446888,"ECCENTRICITY":0.0006047,"INCLINATION":98.1289,"RA_OF_ASC_NODE":249.1224,"ARG_OF_PERICENTER":89.7468,"MEAN_ANOMALY":270.4432,"EPHEMERIS_TYPE":0,"NORAD_CAT_ID":62932,"ELEMENT_SET_NO":999,"REV_AT_EPOCH":7636,"BSTAR":0.00011294,"MEAN_MOTION_DOT":0.00000682,"MEAN_MOTION_DDOT":0},{"OBJECT_NAME":"KINEIS-2B","OBJECT_ID":"2025-028G","EPOCH":"2026-07-12T17:49:10.638336","CLASSIFICATION_TYPE":"U","MEAN_MOTION":14.7344794,"ECCENTRICITY":0.0004926,"INCLINATION":97.9656,"RA_OF_ASC_NODE":246.1398,"ARG_OF_PERICENTER":79.5102,"MEAN_ANOMALY":280.6661,"EPHEMERIS_TYPE":0,"NORAD_CAT_ID":62934,"ELEMENT_SET_NO":999,"REV_AT_EPOCH":7642,"BSTAR":0.00011564,"MEAN_MOTION_DOT":0.00000701,"MEAN_MOTION_DDOT":0},{"OBJECT_NAME":"KINEIS-4E","OBJECT_ID":"2025-056A","EPOCH":"2026-07-12T19:16:12.898848","CLASSIFICATION_TYPE":"U","MEAN_MOTION":14.72298903,"ECCENTRICITY":0.0003021,"INCLINATION":97.9066,"RA_OF_ASC_NODE":316.991,"ARG_OF_PERICENTER":89.9263,"MEAN_ANOMALY":270.2291,"EPHEMERIS_TYPE":0,"NORAD_CAT_ID":63300,"ELEMENT_SET_NO":999,"REV_AT_EPOCH":7089,"BSTAR":0.0001305,"MEAN_MOTION_DOT":0.00000776,"MEAN_MOTION_DDOT":0},{"OBJECT_NAME":"KINEIS-4C","OBJECT_ID":"2025-056B","EPOCH":"2026-07-12T19:34:05.548800","CLASSIFICATION_TYPE":"U","MEAN_MOTION":14.72320639,"ECCENTRICITY":0.0002606,"INCLINATION":97.9119,"RA_OF_ASC_NODE":317.2504,"ARG_OF_PERICENTER":221.423,"MEAN_ANOMALY":138.6781,"EPHEMERIS_TYPE":0,"NORAD_CAT_ID":63301,"ELEMENT_SET_NO":999,"REV_AT_EPOCH":7090,"BSTAR":0.00013434,"MEAN_MOTION_DOT":0.00000801,"MEAN_MOTION_DDOT":0},{"OBJECT_NAME":"KINEIS-4D","OBJECT_ID":"2025-056C","EPOCH":"2026-07-12T19:38:49.987968","CLASSIFICATION_TYPE":"U","MEAN_MOTION":14.72423444,"ECCENTRICITY":0.0001335,"INCLINATION":97.904,"RA_OF_ASC_NODE":317.2287,"ARG_OF_PERICENTER":227.8557,"MEAN_ANOMALY":132.2537,"EPHEMERIS_TYPE":0,"NORAD_CAT_ID":63302,"ELEMENT_SET_NO":999,"REV_AT_EPOCH":7090,"BSTAR":0.00014387,"MEAN_MOTION_DOT":0.00000863,"MEAN_MOTION_DDOT":0},{"OBJECT_NAME":"KINEIS-4A","OBJECT_ID":"2025-056D","EPOCH":"2026-07-12T20:29:32.000640","CLASSIFICATION_TYPE":"U","MEAN_MOTION":14.72330167,"ECCENTRICITY":0.0001914,"INCLINATION":97.9135,"RA_OF_ASC_NODE":317.212,"ARG_OF_PERICENTER":157.0721,"MEAN_ANOMALY":203.0573,"EPHEMERIS_TYPE":0,"NORAD_CAT_ID":63303,"ELEMENT_SET_NO":999,"REV_AT_EPOCH":7090,"BSTAR":0.00013121,"MEAN_MOTION_DOT":0.00000781,"MEAN_MOTION_DDOT":0},{"OBJECT_NAME":"KINEIS-4B","OBJECT_ID":"2025-056E","EPOCH":"2026-07-12T20:04:38.601696","CLASSIFICATION_TYPE":"U","MEAN_MOTION":14.72324588,"ECCENTRICITY":0.00051,"INCLINATION":97.9146,"RA_OF_ASC_NODE":317.2522,"ARG_OF_PERICENTER":200.6498,"MEAN_ANOMALY":159.4505,"EPHEMERIS_TYPE":0,"NORAD_CAT_ID":63304,"ELEMENT_SET_NO":999,"REV_AT_EPOCH":7089,"BSTAR":0.00013102,"MEAN_MOTION_DOT":0.0000078,"MEAN_MOTION_DDOT":0}]}
